[{"OBJECT_NAME":"STARLINK-3642","OBJECT_ID":"2022-025AK","EPOCH":"2026-03-09T21:50:00.780864","MEAN_MOTION":15.08837467,"ECCENTRICITY":0.00013569,"INCLINATION":53.2185,"RA_OF_ASC_NODE":38.1354,"ARG_OF_PERICENTER":74.365,"MEAN_ANOMALY":285.7492,"EPHEMERIS_TYPE":0,"CLASSIFICATION_TYPE":"U","NORAD_CAT_ID":51989,"ELEMENT_SET_NO":999,"REV_AT_EPOCH":22109,"BSTAR":1.7985561e-5,"MEAN_MOTION_DOT":-2.0e-8,"MEAN_MOTION_DDOT":0},{"OBJECT_NAME":"DMSP 5D-2 F13 DEB","OBJECT_ID":"1995-015BF","EPOCH":"2026-03-08T19:32:26.019456","MEAN_MOTION":15.08152744,"ECCENTRICITY":0.00224007,"INCLINATION":98.6145,"RA_OF_ASC_NODE":204.4302,"ARG_OF_PERICENTER":265.1662,"MEAN_ANOMALY":94.7005,"EPHEMERIS_TYPE":0,"CLASSIFICATION_TYPE":"U","NORAD_CAT_ID":40463,"ELEMENT_SET_NO":999,"REV_AT_EPOCH":57796,"BSTAR":0.0090845916,"MEAN_MOTION_DOT":0.00143794,"MEAN_MOTION_DDOT":0}]
